CCSDS_OMM_VERS = 2.0
CREATION_DATE  = 
ORIGINATOR     = 

OBJECT_NAME    = STARLINK-35527
OBJECT_ID      = 2025-236G
CENTER_NAME    = EARTH
REF_FRAME      = TEME
TIME_SYSTEM    = UTC
MEAN_ELEMENT_THEORY = SGP/SGP4

EPOCH          = 2025-11-13T06:00:02.000160
MEAN_MOTION    = 15.55502813
ECCENTRICITY   = .00014847
INCLINATION    = 53.1589
RA_OF_ASC_NODE = 286.8143
ARG_OF_PERICENTER = 81.2129
MEAN_ANOMALY   = 69.9941

EPHEMERIS_TYPE = 0
CLASSIFICATION_TYPE = U
NORAD_CAT_ID   = 66092
ELEMENT_SET_NO = 999
REV_AT_EPOCH   = 513
BSTAR          = -.33572111E-1
MEAN_MOTION_DOT = -.2079694E-1
MEAN_MOTION_DDOT = 0

CCSDS_OMM_VERS = 2.0
CREATION_DATE  = 
ORIGINATOR     = 

OBJECT_NAME    = STARLINK-35500
OBJECT_ID      = 2025-236H
CENTER_NAME    = EARTH
REF_FRAME      = TEME
TIME_SYSTEM    = UTC
MEAN_ELEMENT_THEORY = SGP/SGP4

EPOCH          = 2025-11-13T06:00:02.000160
MEAN_MOTION    = 15.55502967
ECCENTRICITY   = .0001478
INCLINATION    = 53.1589
RA_OF_ASC_NODE = 286.8106
ARG_OF_PERICENTER = 81.5978
MEAN_ANOMALY   = 71.5261

EPHEMERIS_TYPE = 0
CLASSIFICATION_TYPE = U
NORAD_CAT_ID   = 66093
ELEMENT_SET_NO = 999
REV_AT_EPOCH   = 513
BSTAR          = -.33575231E-1
MEAN_MOTION_DOT = -.2079873E-1
MEAN_MOTION_DDOT = 0

CCSDS_OMM_VERS = 2.0
CREATION_DATE  = 
ORIGINATOR     = 

OBJECT_NAME    = STARLINK-35528
OBJECT_ID      = 2025-236J
CENTER_NAME    = EARTH
REF_FRAME      = TEME
TIME_SYSTEM    = UTC
MEAN_ELEMENT_THEORY = SGP/SGP4

EPOCH          = 2025-11-13T06:00:02.000160
MEAN_MOTION    = 15.55503563
ECCENTRICITY   = .00014659
INCLINATION    = 53.1588
RA_OF_ASC_NODE = 286.8069
ARG_OF_PERICENTER = 83.6345
MEAN_ANOMALY   = 71.4058

EPHEMERIS_TYPE = 0
CLASSIFICATION_TYPE = U
NORAD_CAT_ID   = 66094
ELEMENT_SET_NO = 999
REV_AT_EPOCH   = 513
BSTAR          = -.33589004E-1
MEAN_MOTION_DOT = -.2080666E-1
MEAN_MOTION_DDOT = 0

CCSDS_OMM_VERS = 2.0
CREATION_DATE  = 
ORIGINATOR     = 

OBJECT_NAME    = STARLINK-35559
OBJECT_ID      = 2025-236K
CENTER_NAME    = EARTH
REF_FRAME      = TEME
TIME_SYSTEM    = UTC
MEAN_ELEMENT_THEORY = SGP/SGP4

EPOCH          = 2025-11-13T06:00:02.000160
MEAN_MOTION    = 15.55513833
ECCENTRICITY   = .0001404
INCLINATION    = 53.1589
RA_OF_ASC_NODE = 286.8030
ARG_OF_PERICENTER = 82.4562
MEAN_ANOMALY   = 74.4927

EPHEMERIS_TYPE = 0
CLASSIFICATION_TYPE = U
NORAD_CAT_ID   = 66095
ELEMENT_SET_NO = 999
REV_AT_EPOCH   = 513
BSTAR          = -.33755752E-1
MEAN_MOTION_DOT = -.2090535E-1
MEAN_MOTION_DDOT = 0

CCSDS_OMM_VERS = 2.0
CREATION_DATE  = 
ORIGINATOR     = 

OBJECT_NAME    = STARLINK-34386
OBJECT_ID      = 2025-236L
CENTER_NAME    = EARTH
REF_FRAME      = TEME
TIME_SYSTEM    = UTC
MEAN_ELEMENT_THEORY = SGP/SGP4

EPOCH          = 2025-11-13T06:00:02.000160
MEAN_MOTION    = 15.55502341
ECCENTRICITY   = .00014987
INCLINATION    = 53.1588
RA_OF_ASC_NODE = 286.7988
ARG_OF_PERICENTER = 85.0350
MEAN_ANOMALY   = 73.8395

EPHEMERIS_TYPE = 0
CLASSIFICATION_TYPE = U
NORAD_CAT_ID   = 66096
ELEMENT_SET_NO = 999
REV_AT_EPOCH   = 513
BSTAR          = -.33560279E-1
MEAN_MOTION_DOT = -.2079018E-1
MEAN_MOTION_DDOT = 0

CCSDS_OMM_VERS = 2.0
CREATION_DATE  = 
ORIGINATOR     = 

OBJECT_NAME    = STARLINK-35613
OBJECT_ID      = 2025-236M
CENTER_NAME    = EARTH
REF_FRAME      = TEME
TIME_SYSTEM    = UTC
MEAN_ELEMENT_THEORY = SGP/SGP4

EPOCH          = 2025-11-13T06:00:02.000160
MEAN_MOTION    = 15.55513593
ECCENTRICITY   = .00014625
INCLINATION    = 53.1589
RA_OF_ASC_NODE = 286.7907
ARG_OF_PERICENTER = 85.2077
MEAN_ANOMALY   = 77.4903

EPHEMERIS_TYPE = 0
CLASSIFICATION_TYPE = U
NORAD_CAT_ID   = 66097
ELEMENT_SET_NO = 999
REV_AT_EPOCH   = 513
BSTAR          = -.33725199E-1
MEAN_MOTION_DOT = -.2088872E-1
MEAN_MOTION_DDOT = 0

CCSDS_OMM_VERS = 2.0
CREATION_DATE  = 
ORIGINATOR     = 

OBJECT_NAME    = STARLINK-34206
OBJECT_ID      = 2025-236N
CENTER_NAME    = EARTH
REF_FRAME      = TEME
TIME_SYSTEM    = UTC
MEAN_ELEMENT_THEORY = SGP/SGP4

EPOCH          = 2025-11-13T06:00:02.000160
MEAN_MOTION    = 15.55504215
ECCENTRICITY   = .00014523
INCLINATION    = 53.1590
RA_OF_ASC_NODE = 286.7865
ARG_OF_PERICENTER = 82.7504
MEAN_ANOMALY   = 81.8742

EPHEMERIS_TYPE = 0
CLASSIFICATION_TYPE = U
NORAD_CAT_ID   = 66098
ELEMENT_SET_NO = 999
REV_AT_EPOCH   = 512
BSTAR          = -.33604329E-1
MEAN_MOTION_DOT = -.2081548E-1
MEAN_MOTION_DDOT = 0

CCSDS_OMM_VERS = 2.0
CREATION_DATE  = 
ORIGINATOR     = 

OBJECT_NAME    = STARLINK-34460
OBJECT_ID      = 2025-236P
CENTER_NAME    = EARTH
REF_FRAME      = TEME
TIME_SYSTEM    = UTC
MEAN_ELEMENT_THEORY = SGP/SGP4

EPOCH          = 2025-11-13T06:00:02.000160
MEAN_MOTION    = 15.55502474
ECCENTRICITY   = .00015249
INCLINATION    = 53.1588
RA_OF_ASC_NODE = 286.7948
ARG_OF_PERICENTER = 81.2598
MEAN_ANOMALY   = 79.5312

EPHEMERIS_TYPE = 0
CLASSIFICATION_TYPE = U
NORAD_CAT_ID   = 66099
ELEMENT_SET_NO = 999
REV_AT_EPOCH   = 513
BSTAR          = -.33555243E-1
MEAN_MOTION_DOT = -.2078767E-1
MEAN_MOTION_DDOT = 0

CCSDS_OMM_VERS = 2.0
CREATION_DATE  = 
ORIGINATOR     = 

OBJECT_NAME    = STARLINK-35609
OBJECT_ID      = 2025-236Q
CENTER_NAME    = EARTH
REF_FRAME      = TEME
TIME_SYSTEM    = UTC
MEAN_ELEMENT_THEORY = SGP/SGP4

EPOCH          = 2025-11-13T06:00:02.000160
MEAN_MOTION    = 15.55515383
ECCENTRICITY   = .00014314
INCLINATION    = 53.1591
RA_OF_ASC_NODE = 286.7823
ARG_OF_PERICENTER = 81.8247
MEAN_ANOMALY   = 84.7070

EPHEMERIS_TYPE = 0
CLASSIFICATION_TYPE = U
NORAD_CAT_ID   = 66100
ELEMENT_SET_NO = 999
REV_AT_EPOCH   = 507
BSTAR          = -.33780303E-1
MEAN_MOTION_DOT = -.2092014E-1
MEAN_MOTION_DDOT = 0

CCSDS_OMM_VERS = 2.0
CREATION_DATE  = 
ORIGINATOR     = 

OBJECT_NAME    = STARLINK-35595
OBJECT_ID      = 2025-236R
CENTER_NAME    = EARTH
REF_FRAME      = TEME
TIME_SYSTEM    = UTC
MEAN_ELEMENT_THEORY = SGP/SGP4

EPOCH          = 2025-11-13T06:00:02.000160
MEAN_MOTION    = 15.55513165
ECCENTRICITY   = .00015556
INCLINATION    = 53.1588
RA_OF_ASC_NODE = 286.7779
ARG_OF_PERICENTER = 82.7411
MEAN_ANOMALY   = 85.7068

EPHEMERIS_TYPE = 0
CLASSIFICATION_TYPE = U
NORAD_CAT_ID   = 66101
ELEMENT_SET_NO = 999
REV_AT_EPOCH   = 507
BSTAR          = -.33710214E-1
MEAN_MOTION_DOT = -.2088078E-1
MEAN_MOTION_DDOT = 0

CCSDS_OMM_VERS = 2.0
CREATION_DATE  = 
ORIGINATOR     = 

OBJECT_NAME    = STARLINK-35599
OBJECT_ID      = 2025-236S
CENTER_NAME    = EARTH
REF_FRAME      = TEME
TIME_SYSTEM    = UTC
MEAN_ELEMENT_THEORY = SGP/SGP4

EPOCH          = 2025-11-13T06:00:02.000160
MEAN_MOTION    = 15.55512420
ECCENTRICITY   = .00014267
INCLINATION    = 53.1588
RA_OF_ASC_NODE = 286.7750
ARG_OF_PERICENTER = 81.7075
MEAN_ANOMALY   = 88.6603

EPHEMERIS_TYPE = 0
CLASSIFICATION_TYPE = U
NORAD_CAT_ID   = 66102
ELEMENT_SET_NO = 999
REV_AT_EPOCH   = 507
BSTAR          = -.33733742E-1
MEAN_MOTION_DOT = -.2089238E-1
MEAN_MOTION_DDOT = 0

CCSDS_OMM_VERS = 2.0
CREATION_DATE  = 
ORIGINATOR     = 

OBJECT_NAME    = STARLINK-35622
OBJECT_ID      = 2025-236T
CENTER_NAME    = EARTH
REF_FRAME      = TEME
TIME_SYSTEM    = UTC
MEAN_ELEMENT_THEORY = SGP/SGP4

EPOCH          = 2025-11-13T06:00:02.000160
MEAN_MOTION    = 15.55515043
ECCENTRICITY   = .00013663
INCLINATION    = 53.1587
RA_OF_ASC_NODE = 286.7666
ARG_OF_PERICENTER = 81.8481
MEAN_ANOMALY   = 92.3511

EPHEMERIS_TYPE = 0
CLASSIFICATION_TYPE = U
NORAD_CAT_ID   = 66103
ELEMENT_SET_NO = 999
REV_AT_EPOCH   = 513
BSTAR          = -.33776912E-1
MEAN_MOTION_DOT = -.2091761E-1
MEAN_MOTION_DDOT = 0

