STARLINK-35527          
1 66092U 25236G   25317.25002315 -.02079694  00000+0 -33572-1 0  9996
2 66092  53.1589 286.8143 0001484  81.2129  69.9941 15.55502813  5130
STARLINK-35500          
1 66093U 25236H   25317.25002315 -.02079873  00000+0 -33575-1 0  9999
2 66093  53.1589 286.8106 0001478  81.5978  71.5261 15.55502967  5132
STARLINK-35528          
1 66094U 25236J   25317.25002315 -.02080666  00000+0 -33589-1 0  9997
2 66094  53.1588 286.8069 0001465  83.6345  71.4058 15.55503563  5133
STARLINK-35559          
1 66095U 25236K   25317.25002315 -.02090535  00000+0 -33756-1 0  9990
2 66095  53.1589 286.8030 0001404  82.4562  74.4927 15.55513833  5133
STARLINK-34386          
1 66096U 25236L   25317.25002315 -.02079018  00000+0 -33560-1 0  9997
2 66096  53.1588 286.7988 0001498  85.0350  73.8395 15.55502341  5135
STARLINK-35613          
1 66097U 25236M   25317.25002315 -.02088872  00000+0 -33725-1 0  9999
2 66097  53.1589 286.7907 0001462  85.2077  77.4903 15.55513593  5133
STARLINK-34206          
1 66098U 25236N   25317.25002315 -.02081548  00000+0 -33604-1 0  9999
2 66098  53.1590 286.7865 0001452  82.7504  81.8742 15.55504215  5125
STARLINK-34460          
1 66099U 25236P   25317.25002315 -.02078767  00000+0 -33555-1 0  9994
2 66099  53.1588 286.7948 0001524  81.2598  79.5312 15.55502474  5135
STARLINK-35609          
1 66100U 25236Q   25317.25002315 -.02092014  00000+0 -33780-1 0  9998
2 66100  53.1591 286.7823 0001431  81.8247  84.7070 15.55515383  5073
STARLINK-35595          
1 66101U 25236R   25317.25002315 -.02088078  00000+0 -33710-1 0  9997
2 66101  53.1588 286.7779 0001555  82.7411  85.7068 15.55513165  5074
STARLINK-35599          
1 66102U 25236S   25317.25002315 -.02089238  00000+0 -33734-1 0  9993
2 66102  53.1588 286.7750 0001426  81.7075  88.6603 15.55512420  5076
STARLINK-35622          
1 66103U 25236T   25317.25002315 -.02091761  00000+0 -33777-1 0  9995
2 66103  53.1587 286.7666 0001366  81.8481  92.3511 15.55515043  5138
